     2.11           N: GPS NAV DATA                         RINEX VERSION / TYPE
gfzrnx-1.11-7352    FILE MERGE          20251110 010631 UTC PGM / RUN BY / DATE 
    18                  GPS                                 LEAP SECONDS        
                                                            END OF HEADER
01 25 11 10 00 00  0.0 3.543528728187e-04 0.000000000000e+00 0.000000000000e+00
    5.200000000000e+01 6.137500000000e+01 4.676980529298e-09 4.600966158423e-01
    3.075227141380e-06 9.985783835873e-04 3.051012754440e-06 5.153646585464e+03
    8.640000000000e+04-3.725290298462e-08-1.139171027000e+00 5.587935447693e-09
    9.585420579585e-01 3.155000000000e+02-1.062204760749e-01-8.358205295657e-09
   -7.107438910502e-11 1.000000000000e+00 2.392000000000e+03 0.000000000000e+00
    2.000000000000e+00 0.000000000000e+00-8.847564458847e-09 3.080000000000e+02
    8.108200000000e+04 4.000000000000e+00 0.000000000000e+00 0.000000000000e+00
01 25 11 10 02 00  0.0 3.543533384800e-04 0.000000000000e+00 0.000000000000e+00
    5.300000000000e+01 8.065625000000e+01 4.691266838666e-09 1.508161416085e+00
    4.256144165993e-06 1.000195741653e-03 3.118067979813e-06 5.153651622772e+03
    9.360000000000e+04 7.450580596924e-08-1.139231997037e+00-4.097819328308e-08
    9.585415605664e-01 3.144062500000e+02-1.040880506108e-01-8.435351366243e-09
    1.000041655749e-11 1.000000000000e+00 2.392000000000e+03 0.000000000000e+00
    2.000000000000e+00 0.000000000000e+00-8.847564458847e-09 3.090000000000e+02
    8.642300000000e+04 4.000000000000e+00 0.000000000000e+00 0.000000000000e+00
02 25 11 10 00 00  0.0-3.119325265288e-05 8.640199666843e-12 0.000000000000e+00
    9.100000000000e+01 9.540625000000e+01 4.428041588563e-09 1.807582727133e+00
    4.898756742477e-06 1.679333951324e-02 3.183260560036e-06 5.153644273758e+03
    8.640000000000e+04 2.142041921616e-07-1.302326257356e+00 4.284083843231e-08
    9.641187031396e-01 3.092500000000e+02-9.031677823005e-01-8.064621638148e-09
   -1.889364413897e-10 1.000000000000e+00 2.392000000000e+03 0.000000000000e+00
    2.828427076340e+00 0.000000000000e+00-1.769512891769e-08 9.100000000000e+01
    7.921900000000e+04 4.000000000000e+00 0.000000000000e+00 0.000000000000e+00
02 25 11 10 01 59 44.0-3.113038837910e-05 8.640199666843e-12 0.000000000000e+00
    2.100000000000e+01 1.114687500000e+02 4.492687138453e-09 2.855366851913e+00
    5.790963768959e-06 1.679342472926e-02 3.658235073090e-06 5.153645950317e+03
    9.358400000000e+04 1.862645149231e-07-1.302385370950e+00 3.185123205185e-07
    9.641178941459e-01 3.069062500000e+02-9.030883034242e-01-8.065693111350e-09
    2.535819912792e-11 1.000000000000e+00 2.392000000000e+03 0.000000000000e+00
    2.000000000000e+00 0.000000000000e+00-1.769512891769e-08 2.100000000000e+01
    8.785100000000e+04 4.000000000000e+00 0.000000000000e+00 0.000000000000e+00
02 25 11 10 02 00  0.0-3.113131970167e-05 8.640199666843e-12 0.000000000000e+00
    1.020000000000e+02 1.114687500000e+02 4.492687138453e-09 2.857700760696e+00
    5.790963768959e-06 1.679342717398e-02 3.658235073090e-06 5.153645954132e+03
    9.360000000000e+04 1.862645149231e-07-1.302385492372e+00 3.185123205185e-07
    9.641179102380e-01 3.069062500000e+02-9.030884599564e-01-8.065335953616e-09
    2.500104139373e-11 1.000000000000e+00 2.392000000000e+03 0.000000000000e+00
    2.828427076340e+00 0.000000000000e+00-1.769512891769e-08 1.020000000000e+02
    8.642400000000e+04 4.000000000000e+00 0.000000000000e+00 0.000000000000e+00
03 25 11 10 01 59 44.0 6.473376415670e-04-7.048583938740e-12 0.000000000000e+00
    1.400000000000e+01-7.340625000000e+01 3.905519823434e-09-8.170984951349e-01
   -3.868713974953e-06 6.320057320409e-03 3.352761268616e-06 5.153689226151e+03
    9.358400000000e+04-7.078051567078e-08-1.558989474855e-01 1.713633537292e-07
    9.922282351573e-01 3.312187500000e+02 1.227474977123e+00-8.088194048605e-09
   -1.978653847446e-10 1.000000000000e+00 2.392000000000e+03 0.000000000000e+00
    2.000000000000e+00 0.000000000000e+00 1.396983861923e-09 1.400000000000e+01
    8.956200000000e+04 4.000000000000e+00 0.000000000000e+00 0.000000000000e+00
04 25 11 10 00 00  0.0 2.295756712556e-05 2.955857780762e-12 0.000000000000e+00
    9.700000000000e+01-8.296875000000e+01 4.094099107090e-09 1.304475082132e+00
   -4.215165972710e-06 3.616386209615e-03 8.698552846909e-06 5.153768812180e+03
    8.640000000000e+04-6.519258022308e-08 9.158652221941e-01 6.891787052155e-08
    9.693166675871e-01 2.177812500000e+02-2.966248247894e+00-7.729250525737e-09
    2.564392531528e-10 1.000000000000e+00 2.392000000000e+03 0.000000000000e+00
    2.000000000000e+00 0.000000000000e+00-4.656612873077e-09 9.700000000000e+01
    7.922000000000e+04 4.000000000000e+00 0.000000000000e+00 0.000000000000e+00
07 25 11 10 00 00  0.0-1.042885705829e-04-5.684341886081e-12 0.000000000000e+00
    5.900000000000e+01-3.062500000000e+00 4.888060750208e-09-1.380465680039e+00
    1.974403858185e-07 1.994514570106e-02 7.290393114090e-06 5.153661119461e+03
    8.640000000000e+04 3.706663846970e-07 1.925717107104e+00 3.185123205185e-07
    9.503514034591e-01 2.279375000000e+02-2.017965510078e+00-8.039263439020e-09
    4.014452932364e-10 1.000000000000e+00 2.392000000000e+03 0.000000000000e+00
    2.000000000000e+00 0.000000000000e+00-1.071020960808e-08 5.900000000000e+01
    7.922100000000e+04 4.000000000000e+00 0.000000000000e+00 0.000000000000e+00
07 25 11 10 02 00  0.0-1.043295487761e-04-5.684341886081e-12 0.000000000000e+00
    6.100000000000e+01-8.750000000000e+00 4.993779439530e-09-3.302947707658e-01
   -2.812594175339e-07 1.994446024764e-02 8.003786206245e-06 5.153659633636e+03
    9.360000000000e+04-8.381903171539e-08 1.925657137703e+00 2.700835466385e-07
    9.503526279216e-01 2.251250000000e+02-2.017944375300e+00-8.441065889990e-09
    4.218032840856e-10 1.000000000000e+00 2.392000000000e+03 0.000000000000e+00
    2.000000000000e+00 0.000000000000e+00-1.071020960808e-08 6.100000000000e+01
    8.642500000000e+04 4.000000000000e+00 0.000000000000e+00 0.000000000000e+00
08 25 11 09 23 59 44.0 5.234126001596e-04-2.501110429876e-12 0.000000000000e+00
    4.000000000000e+01 8.025000000000e+01 4.816986361103e-09 1.486544705102e+00
    4.464760422707e-06 1.097472466063e-02 9.933486580849e-06 5.153647144318e+03
    8.638400000000e+04-1.043081283569e-07-2.308135417893e+00 1.732259988785e-07
    9.453093378026e-01 1.802187500000e+02 4.743146332683e-01-8.189269687382e-09
   -4.464471677451e-10 1.000000000000e+00 2.392000000000e+03 0.000000000000e+00
    2.000000000000e+00 0.000000000000e+00 4.656612873077e-09 4.000000000000e+01
    8.015000000000e+04 4.000000000000e+00 0.000000000000e+00 0.000000000000e+00
08 25 11 10 01 59 44.0 5.233949050307e-04-2.501110429876e-12 0.000000000000e+00
    4.600000000000e+01 9.221875000000e+01 4.778413325809e-09 2.536884995420e+00
    4.729256033897e-06 1.097547879908e-02 1.005455851555e-05 5.153643949509e+03
    9.358400000000e+04-2.197921276093e-07-2.308194642669e+00-1.844018697739e-07
    9.453079173091e-01 1.766250000000e+02 4.741752610629e-01-7.892828767999e-09
   -2.682254583813e-10 1.000000000000e+00 2.392000000000e+03 0.000000000000e+00
    2.000000000000e+00 0.000000000000e+00 4.656612873077e-09 4.600000000000e+01
    8.642600000000e+04 4.000000000000e+00 0.000000000000e+00 0.000000000000e+00
09 25 11 10 00 00  0.0 7.605091668665e-04 2.955857780762e-12 0.000000000000e+00
    8.300000000000e+01-8.309375000000e+01 4.134815088788e-09 2.038837755216e+00
   -4.258006811142e-06 3.535951371305e-03 8.683651685715e-06 5.153617834091e+03
    8.640000000000e+04 5.401670932770e-08 8.524266076983e-01 7.450580596924e-08
    9.634351371120e-01 2.124375000000e+02 2.041879940175e+00-7.752108620726e-09
    2.696540893180e-10 1.000000000000e+00 2.392000000000e+03 0.000000000000e+00
    2.000000000000e+00 0.000000000000e+00 4.656612873077e-10 8.300000000000e+01
    7.922300000000e+04 4.000000000000e+00 0.000000000000e+00 0.000000000000e+00
13 25 11 10 00 00  0.0 6.945747882128e-04-1.023181539495e-12 0.000000000000e+00
    7.800000000000e+01-6.696875000000e+01 4.020524613845e-09 1.194421674377e+00
   -3.566965460777e-06 9.841470280662e-03 9.763985872269e-06 5.153678319931e+03
    8.640000000000e+04-1.247972249985e-07 1.026002319103e+00-1.862645149231e-08
    9.750099687817e-01 2.000000000000e+02 1.007571666684e+00-7.803896492184e-09
    2.700112470522e-10 1.000000000000e+00 2.392000000000e+03 0.000000000000e+00
    2.000000000000e+00 0.000000000000e+00-1.164153218269e-08 7.800000000000e+01
    8.110500000000e+04 4.000000000000e+00 0.000000000000e+00 0.000000000000e+00
13 25 11 10 02 00  0.0 6.945678032935e-04-1.023181539495e-12 0.000000000000e+00
    8.000000000000e+01-7.125000000000e+01 3.876232889230e-09 2.244465754505e+00
   -3.807246685028e-06 9.841019054875e-03 9.233132004738e-06 5.153680810928e+03
    9.360000000000e+04 2.421438694000e-08 1.025946314211e+00-1.937150955200e-07
    9.750130248175e-01 2.093750000000e+02 1.007701407037e+00-7.593887744477e-09
    3.257278535868e-10 1.000000000000e+00 2.392000000000e+03 0.000000000000e+00
    2.000000000000e+00 0.000000000000e+00-1.164153218269e-08 8.000000000000e+01
    8.642700000000e+04 4.000000000000e+00 0.000000000000e+00 0.000000000000e+00
14 25 11 10 00 00  0.0 7.128515280783e-04 3.183231456205e-12 0.000000000000e+00
    6.600000000000e+01 6.468750000000e+00 5.159143470462e-09-2.210449554691e+00
    2.123415470123e-07 6.309109972790e-03 7.893890142441e-06 5.153635278702e+03
    8.640000000000e+04 6.705522537231e-08 2.990121110638e+00-1.564621925354e-07
    9.432306833554e-01 2.190625000000e+02-2.764562689944e+00-8.173554747077e-09
   -2.414386283166e-10 1.000000000000e+00 2.392000000000e+03 0.000000000000e+00
    2.000000000000e+00 0.000000000000e+00-7.916241884232e-09 5.780000000000e+02
    7.922400000000e+04 4.000000000000e+00 0.000000000000e+00 0.000000000000e+00
